GLOBALSTAR M069         
1 31573U 07020C   26115.52191500 -.00000122  00000+0 -26778-3 0  9995
2 31573  52.0053  41.1867 0002340  42.9840 128.9209 12.23469838872351
GLOBALSTAR M072         
1 31574U 07020D   26115.61583844 -.00000083  00000+0  11733-4 0  9993
2 31574  51.9928 240.2052 0001507 183.0434 190.4102 11.91657317868715
GLOBALSTAR M066         
1 32265U 07048C   26115.50507478 -.00000102  00000+0 -66996-4 0  9992
2 32265  51.9592 209.1491 0004201 288.7701  84.9208 12.30387959853742
GLOBALSTAR M079         
1 37188U 10054A   26115.70726691 -.00000087  00000+0  95265-4 0  9996
2 37188  52.0041 268.4268 0000586 132.6249 247.2188 12.62265139715926
GLOBALSTAR M074         
1 37189U 10054B   26115.84135118 -.00000094  00000+0  53311-4 0  9994
2 37189  52.0015 267.2921 0000660 103.2345  45.9575 12.62267599716549
GLOBALSTAR M076         
1 37190U 10054C   26115.61487931 -.00000080  00000+0  13490-3 0  9992
2 37190  52.0029 268.1790 0000440 102.3697 338.0276 12.62272332716237
GLOBALSTAR M077         
1 37191U 10054D   26115.80218543 -.00000077  00000+0  14811-4 0  9990
2 37191  51.9974 312.2579 0003308  81.2436 292.5275 11.67547508715026
GLOBALSTAR M075         
1 37192U 10054E   26115.87155597 -.00000081  00000+0  12528-3 0  9994
2 37192  51.9954 309.4831 0000828  99.9694   6.6892 12.62266107715332
GLOBALSTAR M073         
1 37193U 10054F   26115.61369594 -.00000105  00000+0 -42833-5 0  9993
2 37193  52.0059 224.3265 0000392 149.3894 223.9440 12.62266482717291
GLOBALSTAR M083         
1 37739U 11033A   26115.46818580 -.00000102  00000+0  74154-5 0  9991
2 37739  51.9841 173.0705 0000261 183.7014 189.7273 12.62262796686296
GLOBALSTAR M088         
1 37740U 11033B   26115.63538839 -.00000101  00000+0  16903-4 0  9994
2 37740  52.0209  78.8594 0000421  55.2265 116.3208 12.62263121681859
GLOBALSTAR M091         
1 37741U 11033C   26115.56894553 -.00000098  00000+0  31619-4 0  9991
2 37741  52.0016  42.1041 0000530  82.2185  88.6910 12.62262782682639
GLOBALSTAR M085         
1 37742U 11033D   26115.85262962 -.00000087  00000+0  96309-4 0  9992
2 37742  52.0148 352.4892 0000692  99.6699 341.1602 12.62262832683180
GLOBALSTAR M081         
1 37743U 11033E   26115.87895595 -.00000085  00000+0  10479-3 0  9990
2 37743  51.9986 354.9056 0000638  80.3012 359.4940 12.62263652683339
GLOBALSTAR M089         
1 37744U 11033F   26115.84428615 -.00000078  00000+0  14450-3 0  9998
2 37744  51.9938 309.1811 0000825  76.1272  26.4683 12.62265949684176
GLOBALSTAR M084         
1 38040U 11080A   26115.44203295 -.00000105  00000+0 -80089-5 0  9996
2 38040  51.9995 177.8583 0000201  71.5872 302.1326 12.62266616662107
GLOBALSTAR M080         
1 38041U 11080B   26115.60116580 -.00000101  00000+0  17058-4 0  9995
2 38041  52.0046 179.0741 0000764 140.9296   6.0134 12.62268503662241
