[{"OBJECT_NAME":"GLOBALSTAR M069","OBJECT_ID":"2007-020C","EPOCH":"2026-04-25T12:31:33.456000","MEAN_MOTION":12.23469838,"ECCENTRICITY":0.000234,"INCLINATION":52.0053,"RA_OF_ASC_NODE":41.1867,"ARG_OF_PERICENTER":42.984,"MEAN_ANOMALY":128.9209,"EPHEMERIS_TYPE":0,"CLASSIFICATION_TYPE":"U","NORAD_CAT_ID":31573,"ELEMENT_SET_NO":999,"REV_AT_EPOCH":87235,"BSTAR":-0.00026778,"MEAN_MOTION_DOT":-1.22e-6,"MEAN_MOTION_DDOT":0},{"OBJECT_NAME":"GLOBALSTAR M072","OBJECT_ID":"2007-020D","EPOCH":"2026-04-25T14:46:48.441216","MEAN_MOTION":11.91657317,"ECCENTRICITY":0.0001507,"INCLINATION":51.9928,"RA_OF_ASC_NODE":240.2052,"ARG_OF_PERICENTER":183.0434,"MEAN_ANOMALY":190.4102,"EPHEMERIS_TYPE":0,"CLASSIFICATION_TYPE":"U","NORAD_CAT_ID":31574,"ELEMENT_SET_NO":999,"REV_AT_EPOCH":86871,"BSTAR":1.1733e-5,"MEAN_MOTION_DOT":-8.3e-7,"MEAN_MOTION_DDOT":0},{"OBJECT_NAME":"GLOBALSTAR M066","OBJECT_ID":"2007-048C","EPOCH":"2026-04-25T12:07:18.460992","MEAN_MOTION":12.30387959,"ECCENTRICITY":0.0004201,"INCLINATION":51.9592,"RA_OF_ASC_NODE":209.1491,"ARG_OF_PERICENTER":288.7701,"MEAN_ANOMALY":84.9208,"EPHEMERIS_TYPE":0,"CLASSIFICATION_TYPE":"U","NORAD_CAT_ID":32265,"ELEMENT_SET_NO":999,"REV_AT_EPOCH":85374,"BSTAR":-6.6996e-5,"MEAN_MOTION_DOT":-1.02e-6,"MEAN_MOTION_DDOT":0},{"OBJECT_NAME":"GLOBALSTAR M079","OBJECT_ID":"2010-054A","EPOCH":"2026-04-25T16:58:27.861024","MEAN_MOTION":12.62265139,"ECCENTRICITY":5.86e-5,"INCLINATION":52.0041,"RA_OF_ASC_NODE":268.4268,"ARG_OF_PERICENTER":132.6249,"MEAN_ANOMALY":247.2188,"EPHEMERIS_TYPE":0,"CLASSIFICATION_TYPE":"U","NORAD_CAT_ID":37188,"ELEMENT_SET_NO":999,"REV_AT_EPOCH":71592,"BSTAR":9.5265e-5,"MEAN_MOTION_DOT":-8.7e-7,"MEAN_MOTION_DDOT":0},{"OBJECT_NAME":"GLOBALSTAR M074","OBJECT_ID":"2010-054B","EPOCH":"2026-04-25T20:11:32.741952","MEAN_MOTION":12.62267599,"ECCENTRICITY":6.6e-5,"INCLINATION":52.0015,"RA_OF_ASC_NODE":267.2921,"ARG_OF_PERICENTER":103.2345,"MEAN_ANOMALY":45.9575,"EPHEMERIS_TYPE":0,"CLASSIFICATION_TYPE":"U","NORAD_CAT_ID":37189,"ELEMENT_SET_NO":999,"REV_AT_EPOCH":71654,"BSTAR":5.3311e-5,"MEAN_MOTION_DOT":-9.4e-7,"MEAN_MOTION_DDOT":0},{"OBJECT_NAME":"GLOBALSTAR M076","OBJECT_ID":"2010-054C","EPOCH":"2026-04-25T14:45:25.572384","MEAN_MOTION":12.62272332,"ECCENTRICITY":4.4e-5,"INCLINATION":52.0029,"RA_OF_ASC_NODE":268.179,"ARG_OF_PERICENTER":102.3697,"MEAN_ANOMALY":338.0276,"EPHEMERIS_TYPE":0,"CLASSIFICATION_TYPE":"U","NORAD_CAT_ID":37190,"ELEMENT_SET_NO":999,"REV_AT_EPOCH":71623,"BSTAR":0.0001349,"MEAN_MOTION_DOT":-8.0e-7,"MEAN_MOTION_DDOT":0},{"OBJECT_NAME":"GLOBALSTAR M077","OBJECT_ID":"2010-054D","EPOCH":"2026-04-25T19:15:08.821152","MEAN_MOTION":11.67547508,"ECCENTRICITY":0.0003308,"INCLINATION":51.9974,"RA_OF_ASC_NODE":312.2579,"ARG_OF_PERICENTER":81.2436,"MEAN_ANOMALY":292.5275,"EPHEMERIS_TYPE":0,"CLASSIFICATION_TYPE":"U","NORAD_CAT_ID":37191,"ELEMENT_SET_NO":999,"REV_AT_EPOCH":71502,"BSTAR":1.4811e-5,"MEAN_MOTION_DOT":-7.7e-7,"MEAN_MOTION_DDOT":0},{"OBJECT_NAME":"GLOBALSTAR M075","OBJECT_ID":"2010-054E","EPOCH":"2026-04-25T20:55:02.435808","MEAN_MOTION":12.62266107,"ECCENTRICITY":8.28e-5,"INCLINATION":51.9954,"RA_OF_ASC_NODE":309.4831,"ARG_OF_PERICENTER":99.9694,"MEAN_ANOMALY":6.6892,"EPHEMERIS_TYPE":0,"CLASSIFICATION_TYPE":"U","NORAD_CAT_ID":37192,"ELEMENT_SET_NO":999,"REV_AT_EPOCH":71533,"BSTAR":0.00012528,"MEAN_MOTION_DOT":-8.1e-7,"MEAN_MOTION_DDOT":0},{"OBJECT_NAME":"GLOBALSTAR M073","OBJECT_ID":"2010-054F","EPOCH":"2026-04-25T14:43:43.329216","MEAN_MOTION":12.62266482,"ECCENTRICITY":3.92e-5,"INCLINATION":52.0059,"RA_OF_ASC_NODE":224.3265,"ARG_OF_PERICENTER":149.3894,"MEAN_ANOMALY":223.944,"EPHEMERIS_TYPE":0,"CLASSIFICATION_TYPE":"U","NORAD_CAT_ID":37193,"ELEMENT_SET_NO":999,"REV_AT_EPOCH":71729,"BSTAR":-4.2833e-6,"MEAN_MOTION_DOT":-1.05e-6,"MEAN_MOTION_DDOT":0},{"OBJECT_NAME":"GLOBALSTAR M083","OBJECT_ID":"2011-033A","EPOCH":"2026-04-25T11:14:11.253120","MEAN_MOTION":12.62262796,"ECCENTRICITY":2.61e-5,"INCLINATION":51.9841,"RA_OF_ASC_NODE":173.0705,"ARG_OF_PERICENTER":183.7014,"MEAN_ANOMALY":189.7273,"EPHEMERIS_TYPE":0,"CLASSIFICATION_TYPE":"U","NORAD_CAT_ID":37739,"ELEMENT_SET_NO":999,"REV_AT_EPOCH":68629,"BSTAR":7.4154e-6,"MEAN_MOTION_DOT":-1.02e-6,"MEAN_MOTION_DDOT":0},{"OBJECT_NAME":"GLOBALSTAR M088","OBJECT_ID":"2011-033B","EPOCH":"2026-04-25T15:14:57.556896","MEAN_MOTION":12.62263121,"ECCENTRICITY":4.21e-5,"INCLINATION":52.0209,"RA_OF_ASC_NODE":78.8594,"ARG_OF_PERICENTER":55.2265,"MEAN_ANOMALY":116.3208,"EPHEMERIS_TYPE":0,"CLASSIFICATION_TYPE":"U","NORAD_CAT_ID":37740,"ELEMENT_SET_NO":999,"REV_AT_EPOCH":68185,"BSTAR":1.6903e-5,"MEAN_MOTION_DOT":-1.01e-6,"MEAN_MOTION_DDOT":0},{"OBJECT_NAME":"GLOBALSTAR M091","OBJECT_ID":"2011-033C","EPOCH":"2026-04-25T13:39:16.893792","MEAN_MOTION":12.62262782,"ECCENTRICITY":5.3e-5,"INCLINATION":52.0016,"RA_OF_ASC_NODE":42.1041,"ARG_OF_PERICENTER":82.2185,"MEAN_ANOMALY":88.691,"EPHEMERIS_TYPE":0,"CLASSIFICATION_TYPE":"U","NORAD_CAT_ID":37741,"ELEMENT_SET_NO":999,"REV_AT_EPOCH":68263,"BSTAR":3.1619e-5,"MEAN_MOTION_DOT":-9.8e-7,"MEAN_MOTION_DDOT":0},{"OBJECT_NAME":"GLOBALSTAR M085","OBJECT_ID":"2011-033D","EPOCH":"2026-04-25T20:27:47.199168","MEAN_MOTION":12.62262832,"ECCENTRICITY":6.92e-5,"INCLINATION":52.0148,"RA_OF_ASC_NODE":352.4892,"ARG_OF_PERICENTER":99.6699,"MEAN_ANOMALY":341.1602,"EPHEMERIS_TYPE":0,"CLASSIFICATION_TYPE":"U","NORAD_CAT_ID":37742,"ELEMENT_SET_NO":999,"REV_AT_EPOCH":68318,"BSTAR":9.6309e-5,"MEAN_MOTION_DOT":-8.7e-7,"MEAN_MOTION_DDOT":0},{"OBJECT_NAME":"GLOBALSTAR M081","OBJECT_ID":"2011-033E","EPOCH":"2026-04-25T21:05:41.794080","MEAN_MOTION":12.62263652,"ECCENTRICITY":6.38e-5,"INCLINATION":51.9986,"RA_OF_ASC_NODE":354.9056,"ARG_OF_PERICENTER":80.3012,"MEAN_ANOMALY":359.494,"EPHEMERIS_TYPE":0,"CLASSIFICATION_TYPE":"U","NORAD_CAT_ID":37743,"ELEMENT_SET_NO":999,"REV_AT_EPOCH":68333,"BSTAR":0.00010479,"MEAN_MOTION_DOT":-8.5e-7,"MEAN_MOTION_DDOT":0},{"OBJECT_NAME":"GLOBALSTAR M089","OBJECT_ID":"2011-033F","EPOCH":"2026-04-25T20:15:46.323360","MEAN_MOTION":12.62265949,"ECCENTRICITY":8.25e-5,"INCLINATION":51.9938,"RA_OF_ASC_NODE":309.1811,"ARG_OF_PERICENTER":76.1272,"MEAN_ANOMALY":26.4683,"EPHEMERIS_TYPE":0,"CLASSIFICATION_TYPE":"U","NORAD_CAT_ID":37744,"ELEMENT_SET_NO":999,"REV_AT_EPOCH":68417,"BSTAR":0.0001445,"MEAN_MOTION_DOT":-7.8e-7,"MEAN_MOTION_DDOT":0},{"OBJECT_NAME":"GLOBALSTAR M084","OBJECT_ID":"2011-080A","EPOCH":"2026-04-25T10:36:31.646880","MEAN_MOTION":12.62266616,"ECCENTRICITY":2.01e-5,"INCLINATION":51.9995,"RA_OF_ASC_NODE":177.8583,"ARG_OF_PERICENTER":71.5872,"MEAN_ANOMALY":302.1326,"EPHEMERIS_TYPE":0,"CLASSIFICATION_TYPE":"U","NORAD_CAT_ID":38040,"ELEMENT_SET_NO":999,"REV_AT_EPOCH":66210,"BSTAR":-8.0089e-6,"MEAN_MOTION_DOT":-1.05e-6,"MEAN_MOTION_DDOT":0},{"OBJECT_NAME":"GLOBALSTAR M080","OBJECT_ID":"2011-080B","EPOCH":"2026-04-25T14:25:40.725120","MEAN_MOTION":12.62268503,"ECCENTRICITY":7.64e-5,"INCLINATION":52.0046,"RA_OF_ASC_NODE":179.0741,"ARG_OF_PERICENTER":140.9296,"MEAN_ANOMALY":6.0134,"EPHEMERIS_TYPE":0,"CLASSIFICATION_TYPE":"U","NORAD_CAT_ID":38041,"ELEMENT_SET_NO":999,"REV_AT_EPOCH":66224,"BSTAR":1.7058e-5,"MEAN_MOTION_DOT":-1.01e-6,"MEAN_MOTION_DDOT":0}]
